      2.10          N: GNSS NAV DATA                        RINEX VERSION / TYPE
fic2rin                                 07/25/2024 00:59:02 PGM / RUN BY / DATE
                                                            END OF HEADER
22 24  7 24  7 59 44.0 -.432613305748D-04 -.443378667114D-11  .000000000000D+00
     .690000000000D+02  .129375000000D+02  .511878464650D-08  .188625018571D+01
     .571832060814D-06  .142108426662D-01  .472366809845D-05  .515368716621D+04
     .287984000000D+06  .210478901863D-06 -.985318763350D+00 -.428408384323D-07
     .960492157017D+00  .285781250000D+03 -.112982924030D+01 -.820462746995D-08
    -.317870383435D-10  .100000000000D+01  .232400000000D+04  .000000000000D+00
     .240000000000D+01  .000000000000D+00 -.111758708954D-07  .690000000000D+02
     .280800000000D+06  .400000000000D+01
2  24  7 24  8  0  0.0 -.392960384488D-03  .738964445191D-11  .000000000000D+00
     .430000000000D+02  .966562500000D+02  .412802909184D-08  .157573158919D+01
     .473856925964D-05  .160183259286D-01  .108368694782D-04  .515369995117D+04
     .288000000000D+06  .344589352608D-06  .934265735575D+00 -.134110450745D-06
     .967241256429D+00  .163781250000D+03 -.115665165896D+01 -.778068123946D-08
    -.746459664470D-10  .100000000000D+01  .232400000000D+04  .000000000000D+00
     .240000000000D+01  .000000000000D+00 -.176951289177D-07  .430000000000D+02
     .280800000000D+06  .400000000000D+01
1  24  7 24  8  0  0.0  .236395746469D-03 -.750333128963D-11  .000000000000D+00
     .111000000000D+03  .171875000000D+02  .651527138720D-08  .280029569581D+01
     .733882188797D-06  .133350547403D-01  .445172190666D-05  .515358827400D+04
     .288000000000D+06  .260770320892D-07 -.105942202870D+01 -.203028321266D-06
     .953717819341D+00  .290500000000D+03  .103488631924D+01 -.823177145775D-08
     .889322758148D-10  .100000000000D+01  .232400000000D+04  .000000000000D+00
     .485000000000D+01  .630000000000D+02 -.195577740669D-07  .111000000000D+03
     .280800000000D+06  .400000000000D+01
3  24  7 24  8  0  0.0  .471365172416D-03  .158024704433D-10  .000000000000D+00
     .660000000000D+02  .157812500000D+02  .423160483476D-08 -.198073315362D+01
     .875443220139D-06  .570588419214D-02  .174902379513D-05  .515368623924D+04
     .288000000000D+06  .102445483208D-06  .207042794824D+01 -.109896063805D-06
     .985088969641D+00  .359656250000D+03  .113179719574D+01 -.822998566908D-08
     .635740766869D-10  .100000000000D+01  .232400000000D+04  .000000000000D+00
     .240000000000D+01  .000000000000D+00  .139698386192D-08  .660000000000D+02
     .280800000000D+06  .400000000000D+01
4  24  7 24  8  0  0.0  .410118140280D-03  .773070496507D-11  .000000000000D+00
     .830000000000D+02 -.126312500000D+03  .420767526656D-08  .105247252560D+01
    -.649690628052D-05  .291846971959D-02  .895746052265D-05  .515372979355D+04
     .288000000000D+06 -.279396772385D-07 -.313474009954D+01  .132247805595D-06
     .965778805021D+00  .209656250000D+03 -.297575918303D+01 -.802426281418D-08
    -.277868717205D-09  .100000000000D+01  .232400000000D+04  .000000000000D+00
     .240000000000D+01  .000000000000D+00 -.465661287308D-08  .595000000000D+03
     .280800000000D+06  .400000000000D+01
11 24  7 24  8  0  0.0 -.710258260369D-03 -.648014975013D-11  .000000000000D+00
     .500000000000D+01  .983750000000D+02  .424874840600D-08  .678741216936D+00
     .522658228874D-05  .149254046846D-02  .973045825958D-05  .515374669075D+04
     .288000000000D+06  .167638063431D-07  .106563063694D+01  .316649675369D-07
     .966192038417D+00  .194812500000D+03 -.260147406917D+01 -.800926218935D-08
     .846463830045D-10  .100000000000D+01  .232400000000D+04  .000000000000D+00
     .240000000000D+01  .000000000000D+00 -.884756445885D-08  .500000000000D+01
     .280800000000D+06  .400000000000D+01
6  24  7 24  8  0  0.0  .142585486174D-03 -.233058017329D-10  .000000000000D+00
     .600000000000D+01  .983437500000D+02  .360050711843D-08 -.563775339049D+00
     .520236790180D-05  .293134292588D-02  .111572444439D-04  .515366848373D+04
     .288000000000D+06 -.242143869400D-07  .103384867583D+01 -.521540641785D-07
     .989644186401D+00  .181281250000D+03 -.716259181813D+00 -.770960685036D-08
     .105361531588D-09  .100000000000D+01  .232400000000D+04  .000000000000D+00
     .240000000000D+01  .000000000000D+00  .372529029846D-08  .600000000000D+01
     .280800000000D+06  .400000000000D+01
8  24  7 24  8  0  0.0  .287453178316D-03  .156887836056D-10  .000000000000D+00
     .700000000000D+01 -.272187500000D+02  .495627787744D-08  .138649490087D+01
    -.112503767014D-05  .951916200574D-02  .971928238869D-05  .515365881157D+04
     .288000000000D+06  .651925802231D-07 -.633900163572D-01  .204890966415D-06
     .952569978706D+00  .188093750000D+03  .366226992424D+00 -.828891669522D-08
    -.768246286256D-09  .100000000000D+01  .232400000000D+04  .000000000000D+00
     .240000000000D+01  .000000000000D+00  .465661287308D-08  .700000000000D+01
     .280800000000D+06  .400000000000D+01
7  24  7 24  8  0  0.0 -.639478676021D-04  .716227077646D-11  .000000000000D+00
     .190000000000D+02  .154375000000D+02  .459662003910D-08 -.146050957044D+01
     .985339283943D-06  .186793886824D-01  .118240714073D-04  .515362687302D+04
     .288000000000D+06  .448897480965D-06 -.212260849233D+01  .163912773132D-06
     .950217710302D+00  .137562500000D+03 -.210835003546D+01 -.788890003292D-08
     .670027909352D-09  .100000000000D+01  .232400000000D+04  .000000000000D+00
     .240000000000D+01  .000000000000D+00 -.111758708954D-07  .190000000000D+02
     .280800000000D+06  .400000000000D+01
5  24  7 24  8  0  0.0 -.180810224265D-03 -.125055521494D-11  .000000000000D+00
     .520000000000D+02  .302812500000D+02  .455483258420D-08  .172323402035D+01
     .136345624924D-05  .595809903461D-02  .237859785557D-05  .515364317322D+04
     .288000000000D+06 -.279396772385D-07  .201831062416D+01 -.949949026108D-07
     .972003237642D+00  .341437500000D+03  .129531525026D+01 -.842106505688D-08
     .892894335490D-10  .100000000000D+01  .232400000000D+04  .000000000000D+00
     .240000000000D+01  .000000000000D+00 -.107102096081D-07  .520000000000D+02
     .280800000000D+06  .400000000000D+01
20 24  7 24  8  0  0.0  .372433569282D-03 -.454747350886D-12  .000000000000D+00
     .140000000000D+02  .533125000000D+02  .495699219291D-08 -.177265650157D+00
     .280328094959D-05  .368953170255D-02  .268220901489D-05  .515356335258D+04
     .288000000000D+06  .167638063431D-07  .188842102594D+01  .614672899246D-07
     .954363472384D+00  .324906250000D+03 -.258236500898D+01 -.867714715229D-08
     .188579283656D-09  .100000000000D+01  .232400000000D+04  .000000000000D+00
     .240000000000D+01  .000000000000D+00 -.838190317154D-08  .140000000000D+02
     .280800000000D+06  .400000000000D+01
12 24  7 24  8  0  0.0 -.524783972651D-03 -.306954461848D-11  .000000000000D+00
     .790000000000D+02  .160000000000D+02  .512914222079D-08 -.219403031808D+01
     .949949026108D-06  .867453450337D-02  .455975532532D-05  .515361219978D+04
     .288000000000D+06  .894069671631D-07 -.100641912277D+01  .109896063805D-06
     .961699775410D+00  .290968750000D+03  .145875880860D+01 -.825748681461D-08
     .183221917643D-09  .100000000000D+01  .232400000000D+04  .000000000000D+00
     .240000000000D+01  .000000000000D+00 -.125728547573D-07  .790000000000D+02
     .280800000000D+06  .400000000000D+01
10 24  7 24  8  0  0.0 -.743372365832D-04 -.101181285572D-10  .000000000000D+00
     .106000000000D+03  .129375000000D+02  .415374444870D-08 -.292483249140D+01
     .681728124619D-06  .945009721909D-02  .177137553692D-05  .515368178177D+04
     .288000000000D+06  .521540641785D-07  .206786788549D+01 -.707805156708D-07
     .984740327004D+00  .358218750000D+03 -.237846496610D+01 -.806712174229D-08
     .117862052285D-09  .100000000000D+01  .232400000000D+04  .000000000000D+00
     .240000000000D+01  .000000000000D+00  .232830643654D-08  .106000000000D+03
     .280800000000D+06  .400000000000D+01
31 24  7 24  8  0  0.0 -.226518604904D-03  .341060513165D-12  .000000000000D+00
     .390000000000D+02  .176875000000D+02  .452268838813D-08 -.239760160962D+01
     .495463609695D-06  .105044532102D-01  .120047479868D-04  .515376346207D+04
     .288000000000D+06  .298023223877D-07 -.210085514334D+01 -.115483999252D-06
     .954161207867D+00  .142593750000D+03  .697033494860D+00 -.783925510787D-08
     .687171480593D-09  .100000000000D+01  .232400000000D+04  .000000000000D+00
     .240000000000D+01  .000000000000D+00 -.135041773319D-07  .390000000000D+02
     .280800000000D+06  .400000000000D+01
32 24  7 24  8  0  0.0 -.610427465290D-03  .227373675443D-11  .000000000000D+00
     .230000000000D+02 -.119093750000D+03  .423124767702D-08  .209775231750D+01
    -.610016286373D-05  .780170247890D-02  .827759504318D-05  .515370812607D+04
     .288000000000D+06 -.428408384323D-07  .310334026873D+01 -.180676579475D-06
     .962798394703D+00  .218843750000D+03 -.213227565688D+01 -.798640409436D-08
    -.173221501085D-09  .100000000000D+01  .232400000000D+04  .000000000000D+00
     .240000000000D+01  .000000000000D+00  .931322574615D-09  .230000000000D+02
     .280800000000D+06  .400000000000D+01
29 24  7 24  8  0  0.0 -.587955582887D-03  .193267624127D-11  .000000000000D+00
     .580000000000D+02 -.192187500000D+02  .434053794369D-08  .135263149407D+01
    -.101700425148D-05  .301048695110D-02  .989809632301D-05  .515356401443D+04
     .288000000000D+06 -.242143869400D-07  .473132620330D-01 -.596046447754D-07
     .970839316612D+00  .188812500000D+03  .262925128326D+01 -.793211611876D-08
    -.658241704123D-09  .100000000000D+01  .232400000000D+04  .000000000000D+00
     .240000000000D+01  .000000000000D+00 -.977888703346D-08  .580000000000D+02
     .280800000000D+06  .400000000000D+01
